{"fetched_at":"2026-03-30T20:46:33Z","count":15425,"tles":[{"name":"STARLINK-6188","line1":"1 56376U 23061C   26087.70460009  .00000239  00000+0  18568-4 0  9993","line2":"2 56376  43.0014  90.0067 0000771 267.1553  92.9210 15.26741103159667","category":"Starlink"}]}